{
  "type": "FeatureCollection",
  "features": [
    {
      "type": "Feature",
      "properties": {
        "norad_id": 37836,
        "name": "EUTELSAT 16A",
        "group": "eutelsat",
        "lat": 0.08446088719468814,
        "lon": 55.49426930018952,
        "alt_km": 35807.46000061048,
        "timestamp": "2025-12-19T20:42:59.752282+00:00",
        "meta_object_name": "EUTELSAT 16A",
        "meta_object_id": "2011-057A",
        "meta_epoch": "2025-12-19T04:46:45.532704",
        "meta_mean_motion": 1.00268777,
        "meta_eccentricity": 0.00058489,
        "meta_inclination": 0.0612,
        "meta_ra_of_asc_node": 334.9159,
        "meta_arg_of_pericenter": 294.3217,
        "meta_mean_anomaly": 266.5229,
        "meta_ephemeris_type": 0,
        "meta_classification_type": "U",
        "meta_norad_cat_id": 37836,
        "meta_element_set_no": 999,
        "meta_rev_at_epoch": 552,
        "meta_bstar": 0,
        "meta_mean_motion_dot": 1.29e-06,
        "meta_mean_motion_ddot": 0,
        "tle_line1": "1 37836U 11057A   25353.19913811  .00000129  00000+0  00000+0 0  9992",
        "tle_line2": "2 37836   0.0612 334.9159 0005848 294.3217 266.5229  1.00268777  5527"
      },
      "geometry": {
        "type": "Point",
        "coordinates": [
          55.49426930018952,
          0.08446088719468814
        ]
      }
    },
    {
      "type": "Feature",
      "properties": {
        "norad_id": 38992,
        "name": "EUTELSAT 21B",
        "group": "eutelsat",
        "lat": 0.09490362042666542,
        "lon": 61.07204878420778,
        "alt_km": 35798.69653283822,
        "timestamp": "2025-12-19T20:42:59.752294+00:00",
        "meta_object_name": "EUTELSAT 21B",
        "meta_object_id": "2012-062B",
        "meta_epoch": "2025-12-19T06:31:05.539296",
        "meta_mean_motion": 1.00268321,
        "meta_eccentricity": 0.00032275,
        "meta_inclination": 0.0701,
        "meta_ra_of_asc_node": 337.5335,
        "meta_arg_of_pericenter": 294.5762,
        "meta_mean_anomaly": 295.4019,
        "meta_ephemeris_type": 0,
        "meta_classification_type": "U",
        "meta_norad_cat_id": 38992,
        "meta_element_set_no": 999,
        "meta_rev_at_epoch": 4802,
        "meta_bstar": 0,
        "meta_mean_motion_dot": 1.55e-06,
        "meta_mean_motion_ddot": 0,
        "tle_line1": "1 38992U 12062B   25353.27159189  .00000155  00000+0  00000+0 0  9991",
        "tle_line2": "2 38992   0.0701 337.5335 0003227 294.5762 295.4019  1.00268321 48026"
      },
      "geometry": {
        "type": "Point",
        "coordinates": [
          61.07204878420778,
          0.09490362042666542
        ]
      }
    },
    {
      "type": "Feature",
      "properties": {
        "norad_id": 39020,
        "name": "EUTELSAT 70B",
        "group": "eutelsat",
        "lat": 0.08278060917571542,
        "lon": 109.90543428033071,
        "alt_km": 35800.70492863173,
        "timestamp": "2025-12-19T20:42:59.752306+00:00",
        "meta_object_name": "EUTELSAT 70B",
        "meta_object_id": "2012-069A",
        "meta_epoch": "2025-12-19T05:02:06.562752",
        "meta_mean_motion": 1.00271337,
        "meta_eccentricity": 0.00043016,
        "meta_inclination": 0.0608,
        "meta_ra_of_asc_node": 1.6448,
        "meta_arg_of_pericenter": 250.9533,
        "meta_mean_anomaly": 341.4828,
        "meta_ephemeris_type": 0,
        "meta_classification_type": "U",
        "meta_norad_cat_id": 39020,
        "meta_element_set_no": 999,
        "meta_rev_at_epoch": 4770,
        "meta_bstar": 0,
        "meta_mean_motion_dot": -1.9e-07,
        "meta_mean_motion_ddot": 0,
        "tle_line1": "1 39020U 12069A   25353.20979818 -.00000019  00000+0  00000+0 0  9993",
        "tle_line2": "2 39020   0.0608   1.6448 0004301 250.9533 341.4828  1.00271337 47700"
      },
      "geometry": {
        "type": "Point",
        "coordinates": [
          109.90543428033071,
          0.08278060917571542
        ]
      }
    },
    {
      "type": "Feature",
      "properties": {
        "norad_id": 39122,
        "name": "EUTELSAT 117 WEST A",
        "group": "eutelsat",
        "lat": -0.044754014911628864,
        "lon": -77.33960433381114,
        "alt_km": 35774.40077336713,
        "timestamp": "2025-12-19T20:42:59.752319+00:00",
        "meta_object_name": "EUTELSAT 117 WEST A",
        "meta_object_id": "2013-012A",
        "meta_epoch": "2025-12-19T05:51:39.314592",
        "meta_mean_motion": 1.00273001,
        "meta_eccentricity": 0.00027105,
        "meta_inclination": 0.0298,
        "meta_ra_of_asc_node": 48.9199,
        "meta_arg_of_pericenter": 224.1187,
        "meta_mean_anomaly": 146.1787,
        "meta_ephemeris_type": 0,
        "meta_classification_type": "U",
        "meta_norad_cat_id": 39122,
        "meta_element_set_no": 999,
        "meta_rev_at_epoch": 4662,
        "meta_bstar": 0,
        "meta_mean_motion_dot": 1.1e-07,
        "meta_mean_motion_ddot": 0,
        "tle_line1": "1 39122U 13012A   25353.24420503  .00000011  00000+0  00000+0 0  9992",
        "tle_line2": "2 39122   0.0298  48.9199 0002710 224.1187 146.1787  1.00273001 46629"
      },
      "geometry": {
        "type": "Point",
        "coordinates": [
          -77.33960433381114,
          -0.044754014911628864
        ]
      }
    },
    {
      "type": "Feature",
      "properties": {
        "norad_id": 39163,
        "name": "EUTELSAT 7B",
        "group": "eutelsat",
        "lat": 0.07165527273983462,
        "lon": 46.491857274310085,
        "alt_km": 35784.87429385851,
        "timestamp": "2025-12-19T20:42:59.752331+00:00",
        "meta_object_name": "EUTELSAT 7B",
        "meta_object_id": "2013-022A",
        "meta_epoch": "2025-12-19T06:26:58.432704",
        "meta_mean_motion": 1.00270274,
        "meta_eccentricity": 0.00042834,
        "meta_inclination": 0.0652,
        "meta_ra_of_asc_node": 356.9078,
        "meta_arg_of_pericenter": 324.8571,
        "meta_mean_anomaly": 230.1004,
        "meta_ephemeris_type": 0,
        "meta_classification_type": "U",
        "meta_norad_cat_id": 39163,
        "meta_element_set_no": 999,
        "meta_rev_at_epoch": 4614,
        "meta_bstar": 0,
        "meta_mean_motion_dot": 7.3e-07,
        "meta_mean_motion_ddot": 0,
        "tle_line1": "1 39163U 13022A   25353.26873186  .00000073  00000+0  00000+0 0  9997",
        "tle_line2": "2 39163   0.0652 356.9078 0004283 324.8571 230.1004  1.00270274 46140"
      },
      "geometry": {
        "type": "Point",
        "coordinates": [
          46.491857274310085,
          0.07165527273983462
        ]
      }
    },
    {
      "type": "Feature",
      "properties": {
        "norad_id": 39612,
        "name": "EXPRESS-AT1",
        "group": "eutelsat",
        "lat": 0.04537288946204517,
        "lon": 95.42001513255227,
        "alt_km": 35784.26499549171,
        "timestamp": "2025-12-19T20:42:59.752343+00:00",
        "meta_object_name": "EXPRESS-AT1",
        "meta_object_id": "2014-010A",
        "meta_epoch": "2025-12-19T04:58:14.432736",
        "meta_mean_motion": 1.00268839,
        "meta_eccentricity": 6.278e-05,
        "meta_inclination": 0.0247,
        "meta_ra_of_asc_node": 333.23,
        "meta_arg_of_pericenter": 136.0736,
        "meta_mean_anomaly": 109.2997,
        "meta_ephemeris_type": 0,
        "meta_classification_type": "U",
        "meta_norad_cat_id": 39612,
        "meta_element_set_no": 999,
        "meta_rev_at_epoch": 4301,
        "meta_bstar": 0,
        "meta_mean_motion_dot": 0,
        "meta_mean_motion_ddot": 0,
        "tle_line1": "1 39612U 14010A   25353.20711149  .00000000  00000+0  00000+0 0  9998",
        "tle_line2": "2 39612   0.0247 333.2300 0000627 136.0736 109.2997  1.00268839 43013"
      },
      "geometry": {
        "type": "Point",
        "coordinates": [
          95.42001513255227,
          0.04537288946204517
        ]
      }
    },
    {
      "type": "Feature",
      "properties": {
        "norad_id": 39613,
        "name": "EXPRESS-AT2",
        "group": "eutelsat",
        "lat": -0.0175431669255895,
        "lon": 179.28923030813363,
        "alt_km": 35787.605580836986,
        "timestamp": "2025-12-19T20:42:59.752355+00:00",
        "meta_object_name": "EXPRESS-AT2",
        "meta_object_id": "2014-010B",
        "meta_epoch": "2025-12-19T07:04:55.947936",
        "meta_mean_motion": 1.0027165,
        "meta_eccentricity": 0.00010069,
        "meta_inclination": 0.0159,
        "meta_ra_of_asc_node": 313.8,
        "meta_arg_of_pericenter": 335.1745,
        "meta_mean_anomaly": 45.2607,
        "meta_ephemeris_type": 0,
        "meta_classification_type": "U",
        "meta_norad_cat_id": 39613,
        "meta_element_set_no": 999,
        "meta_rev_at_epoch": 4269,
        "meta_bstar": 0,
        "meta_mean_motion_dot": -2.56e-06,
        "meta_mean_motion_ddot": 0,
        "tle_line1": "1 39613U 14010B   25353.29509199 -.00000256  00000+0  00000+0 0  9992",
        "tle_line2": "2 39613   0.0159 313.8000 0001006 335.1745  45.2607  1.00271650 42696"
      },
      "geometry": {
        "type": "Point",
        "coordinates": [
          179.28923030813363,
          -0.0175431669255895
        ]
      }
    }
  ]
}